{"fetched_at":"2026-07-08T07:03:57.858Z","source":"https://celestrak.org/NORAD/elements/gp.php?NAME=HAWK&FORMAT=JSON","constellation":"hawkeye-360","records":[{"OBJECT_NAME":"HAWK-A","OBJECT_ID":"2018-099H","EPOCH":"2026-07-07T16:36:49.141152","CLASSIFICATION_TYPE":"U","MEAN_MOTION":15.24899746,"ECCENTRICITY":0.0033946,"INCLINATION":97.3902,"RA_OF_ASC_NODE":240.6624,"ARG_OF_PERICENTER":210.6489,"MEAN_ANOMALY":149.2766,"EPHEMERIS_TYPE":0,"NORAD_CAT_ID":43765,"ELEMENT_SET_NO":999,"REV_AT_EPOCH":41622,"BSTAR":0.00019339,"MEAN_MOTION_DOT":0.00004815,"MEAN_MOTION_DDOT":0},{"OBJECT_NAME":"HAWK-B","OBJECT_ID":"2018-099AN","EPOCH":"2026-07-07T16:08:35.244960","CLASSIFICATION_TYPE":"U","MEAN_MOTION":15.23058447,"ECCENTRICITY":0.00307,"INCLINATION":97.3949,"RA_OF_ASC_NODE":240.015,"ARG_OF_PERICENTER":229.1447,"MEAN_ANOMALY":130.7128,"EPHEMERIS_TYPE":0,"NORAD_CAT_ID":43794,"ELEMENT_SET_NO":999,"REV_AT_EPOCH":41615,"BSTAR":0.00016381,"MEAN_MOTION_DOT":0.00003835,"MEAN_MOTION_DDOT":0},{"OBJECT_NAME":"HAWK-C","OBJECT_ID":"2018-099AT","EPOCH":"2026-07-07T18:04:22.183392","CLASSIFICATION_TYPE":"U","MEAN_MOTION":15.28411629,"ECCENTRICITY":0.0039582,"INCLINATION":97.3877,"RA_OF_ASC_NODE":241.7361,"ARG_OF_PERICENTER":210.3581,"MEAN_ANOMALY":149.5366,"EPHEMERIS_TYPE":0,"NORAD_CAT_ID":43799,"ELEMENT_SET_NO":999,"REV_AT_EPOCH":41705,"BSTAR":0.00020497,"MEAN_MOTION_DOT":0.00005724,"MEAN_MOTION_DDOT":0},{"OBJECT_NAME":"HAWK-2C","OBJECT_ID":"2021-006CT","EPOCH":"2026-07-07T16:33:07.653024","CLASSIFICATION_TYPE":"U","MEAN_MOTION":15.34924675,"ECCENTRICITY":0.0008484,"INCLINATION":97.227,"RA_OF_ASC_NODE":232.5919,"ARG_OF_PERICENTER":122.469,"MEAN_ANOMALY":237.7375,"EPHEMERIS_TYPE":0,"NORAD_CAT_ID":47502,"ELEMENT_SET_NO":999,"REV_AT_EPOCH":30264,"BSTAR":0.00013462,"MEAN_MOTION_DOT":0.00004486,"MEAN_MOTION_DDOT":0},{"OBJECT_NAME":"HAWK-2A","OBJECT_ID":"2021-006CW","EPOCH":"2026-07-07T16:36:26.132832","CLASSIFICATION_TYPE":"U","MEAN_MOTION":15.34938935,"ECCENTRICITY":0.0007962,"INCLINATION":97.231,"RA_OF_ASC_NODE":233.284,"ARG_OF_PERICENTER":125.4149,"MEAN_ANOMALY":234.7839,"EPHEMERIS_TYPE":0,"NORAD_CAT_ID":47505,"ELEMENT_SET_NO":999,"REV_AT_EPOCH":30264,"BSTAR":0.00013554,"MEAN_MOTION_DOT":0.00004518,"MEAN_MOTION_DDOT":0},{"OBJECT_NAME":"HAWK-2B","OBJECT_ID":"2021-006CZ","EPOCH":"2026-07-07T16:28:00.217632","CLASSIFICATION_TYPE":"U","MEAN_MOTION":15.35062896,"ECCENTRICITY":0.0008544,"INCLINATION":97.2181,"RA_OF_ASC_NODE":231.5774,"ARG_OF_PERICENTER":124.047,"MEAN_ANOMALY":236.1586,"EPHEMERIS_TYPE":0,"NORAD_CAT_ID":47508,"ELEMENT_SET_NO":999,"REV_AT_EPOCH":30264,"BSTAR":0.00015236,"MEAN_MOTION_DOT":0.0000511,"MEAN_MOTION_DDOT":0},{"OBJECT_NAME":"HAWK-3B","OBJECT_ID":"2021-059BE","EPOCH":"2026-07-06T12:06:19.954368","CLASSIFICATION_TYPE":"U","MEAN_MOTION":15.71268243,"ECCENTRICITY":0.00037585,"INCLINATION":97.6647,"RA_OF_ASC_NODE":26.0618,"ARG_OF_PERICENTER":231.7433,"MEAN_ANOMALY":128.3491,"EPHEMERIS_TYPE":0,"NORAD_CAT_ID":48931,"ELEMENT_SET_NO":999,"REV_AT_EPOCH":28088,"BSTAR":0.00028562891,"MEAN_MOTION_DOT":0.00036099,"MEAN_MOTION_DDOT":0},{"OBJECT_NAME":"HAWK-3C","OBJECT_ID":"2021-059BX","EPOCH":"2026-07-07T00:19:31.958976","CLASSIFICATION_TYPE":"U","MEAN_MOTION":15.71298826,"ECCENTRICITY":0.00039792,"INCLINATION":97.6768,"RA_OF_ASC_NODE":32.3408,"ARG_OF_PERICENTER":231.9425,"MEAN_ANOMALY":128.1479,"EPHEMERIS_TYPE":0,"NORAD_CAT_ID":48948,"ELEMENT_SET_NO":999,"REV_AT_EPOCH":28096,"BSTAR":0.00028020924,"MEAN_MOTION_DOT":0.00035456,"MEAN_MOTION_DDOT":0},{"OBJECT_NAME":"HAWK-3A","OBJECT_ID":"2021-059CG","EPOCH":"2026-07-07T00:19:22.130112","CLASSIFICATION_TYPE":"U","MEAN_MOTION":15.71296947,"ECCENTRICITY":0.00038868,"INCLINATION":97.6708,"RA_OF_ASC_NODE":29.5295,"ARG_OF_PERICENTER":234.0895,"MEAN_ANOMALY":126.0006,"EPHEMERIS_TYPE":0,"NORAD_CAT_ID":48957,"ELEMENT_SET_NO":999,"REV_AT_EPOCH":28096,"BSTAR":0.00028767336,"MEAN_MOTION_DOT":0.00036405,"MEAN_MOTION_DDOT":0},{"OBJECT_NAME":"HAWK-5C","OBJECT_ID":"2022-057Y","EPOCH":"2026-07-07T17:51:20.265984","CLASSIFICATION_TYPE":"U","MEAN_MOTION":15.52134508,"ECCENTRICITY":0.0003554,"INCLINATION":97.6615,"RA_OF_ASC_NODE":349.7502,"ARG_OF_PERICENTER":14.6424,"MEAN_ANOMALY":345.493,"EPHEMERIS_TYPE":0,"NORAD_CAT_ID":52754,"ELEMENT_SET_NO":999,"REV_AT_EPOCH":22953,"BSTAR":0.00021007,"MEAN_MOTION_DOT":0.000126,"MEAN_MOTION_DDOT":0},{"OBJECT_NAME":"HAWK-5B","OBJECT_ID":"2022-057AA","EPOCH":"2026-07-07T17:51:03.678912","CLASSIFICATION_TYPE":"U","MEAN_MOTION":15.52139665,"ECCENTRICITY":0.0004144,"INCLINATION":97.6631,"RA_OF_ASC_NODE":348.1021,"ARG_OF_PERICENTER":2.1284,"MEAN_ANOMALY":357.9984,"EPHEMERIS_TYPE":0,"NORAD_CAT_ID":52756,"ELEMENT_SET_NO":999,"REV_AT_EPOCH":22953,"BSTAR":0.00021213,"MEAN_MOTION_DOT":0.00012728,"MEAN_MOTION_DDOT":0},{"OBJECT_NAME":"HAWK-5A","OBJECT_ID":"2022-057AB","EPOCH":"2026-07-07T17:50:46.867200","CLASSIFICATION_TYPE":"U","MEAN_MOTION":15.52139344,"ECCENTRICITY":0.0004053,"INCLINATION":97.6626,"RA_OF_ASC_NODE":348.9329,"ARG_OF_PERICENTER":7.119,"MEAN_ANOMALY":353.0118,"EPHEMERIS_TYPE":0,"NORAD_CAT_ID":52757,"ELEMENT_SET_NO":999,"REV_AT_EPOCH":22953,"BSTAR":0.0002119,"MEAN_MOTION_DOT":0.00012714,"MEAN_MOTION_DDOT":0},{"OBJECT_NAME":"HAWK-6B","OBJECT_ID":"2023-011A","EPOCH":"2026-07-07T13:49:33.812256","CLASSIFICATION_TYPE":"U","MEAN_MOTION":15.23109984,"ECCENTRICITY":0.0003032,"INCLINATION":40.4971,"RA_OF_ASC_NODE":233.1356,"ARG_OF_PERICENTER":198.5523,"MEAN_ANOMALY":161.5176,"EPHEMERIS_TYPE":0,"NORAD_CAT_ID":55324,"ELEMENT_SET_NO":999,"REV_AT_EPOCH":19095,"BSTAR":0.00011961,"MEAN_MOTION_DOT":0.00002686,"MEAN_MOTION_DDOT":0},{"OBJECT_NAME":"HAWK-6C","OBJECT_ID":"2023-011C","EPOCH":"2026-07-07T13:48:40.149216","CLASSIFICATION_TYPE":"U","MEAN_MOTION":15.23110272,"ECCENTRICITY":0.0003406,"INCLINATION":40.4958,"RA_OF_ASC_NODE":229.9751,"ARG_OF_PERICENTER":185.2736,"MEAN_ANOMALY":174.8038,"EPHEMERIS_TYPE":0,"NORAD_CAT_ID":55326,"ELEMENT_SET_NO":999,"REV_AT_EPOCH":19096,"BSTAR":0.00012876,"MEAN_MOTION_DOT":0.00002907,"MEAN_MOTION_DDOT":0},{"OBJECT_NAME":"HAWK-6A","OBJECT_ID":"2023-011D","EPOCH":"2026-07-07T13:48:43.014240","CLASSIFICATION_TYPE":"U","MEAN_MOTION":15.23111426,"ECCENTRICITY":0.0002947,"INCLINATION":40.4968,"RA_OF_ASC_NODE":231.6017,"ARG_OF_PERICENTER":183.6819,"MEAN_ANOMALY":176.3969,"EPHEMERIS_TYPE":0,"NORAD_CAT_ID":55327,"ELEMENT_SET_NO":999,"REV_AT_EPOCH":19096,"BSTAR":0.00012816,"MEAN_MOTION_DOT":0.00002892,"MEAN_MOTION_DDOT":0},{"OBJECT_NAME":"HAWK-7A","OBJECT_ID":"2023-054P","EPOCH":"2026-07-07T17:54:22.422240","CLASSIFICATION_TYPE":"U","MEAN_MOTION":15.27580157,"ECCENTRICITY":0.0002261,"INCLINATION":97.2674,"RA_OF_ASC_NODE":75.5606,"ARG_OF_PERICENTER":5.1743,"MEAN_ANOMALY":354.952,"EPHEMERIS_TYPE":0,"NORAD_CAT_ID":56191,"ELEMENT_SET_NO":999,"REV_AT_EPOCH":18016,"BSTAR":0.00014051,"MEAN_MOTION_DOT":0.00003717,"MEAN_MOTION_DDOT":0}]}
