HAWK-A                  
1 43765U 18099H   26188.69223543  .00004815  00000+0  19339-3 0  9996
2 43765  97.3902 240.6624 0033946 210.6489 149.2766 15.24899746416221
HAWK-B                  
1 43794U 18099AN  26188.67263015  .00003835  00000+0  16381-3 0  9999
2 43794  97.3949 240.0150 0030700 229.1447 130.7128 15.23058447416159
HAWK-C                  
1 43799U 18099AT  26188.75303453  .00005724  00000+0  20497-3 0  9996
2 43799  97.3877 241.7361 0039582 210.3581 149.5366 15.28411629417056
HAWK-2C                 
1 47502U 21006CT  26188.68967191  .00004486  00000+0  13462-3 0  9999
2 47502  97.2270 232.5919 0008484 122.4690 237.7375 15.34924675302641
HAWK-2A                 
1 47505U 21006CW  26188.69196913  .00004518  00000+0  13554-3 0  9997
2 47505  97.2310 233.2840 0007962 125.4149 234.7839 15.34938935302648
HAWK-2B                 
1 47508U 21006CZ  26188.68611363  .00005110  00000+0  15236-3 0  9998
2 47508  97.2181 231.5774 0008544 124.0470 236.1586 15.35062896302643
HAWK-3B                 
1 48931U 21059BE  26187.50439762  .00036099  00000+0  28563-3 0  9995
2 48931  97.6647  26.0618 0003758 231.7433 128.3491 15.71268243280888
HAWK-3C                 
1 48948U 21059BX  26188.01356434  .00035456  00000+0  28021-3 0  9999
2 48948  97.6768  32.3408 0003979 231.9425 128.1479 15.71298826280968
HAWK-3A                 
1 48957U 21059CG  26188.01345058  .00036405  00000+0  28767-3 0  9991
2 48957  97.6708  29.5295 0003886 234.0895 126.0006 15.71296947280961
HAWK-5C                 
1 52754U 22057Y   26188.74398456  .00012600  00000+0  21007-3 0  9991
2 52754  97.6615 349.7502 0003554  14.6424 345.4930 15.52134508229530
HAWK-5B                 
1 52756U 22057AA  26188.74379258  .00012728  00000+0  21213-3 0  9992
2 52756  97.6631 348.1021 0004144   2.1284 357.9984 15.52139665229537
HAWK-5A                 
1 52757U 22057AB  26188.74359800  .00012714  00000+0  21190-3 0  9993
2 52757  97.6626 348.9329 0004053   7.1190 353.0118 15.52139344229531
HAWK-6B                 
1 55324U 23011A   26188.57608579  .00002686  00000+0  11961-3 0  9990
2 55324  40.4971 233.1356 0003032 198.5523 161.5176 15.23109984190953
HAWK-6C                 
1 55326U 23011C   26188.57546469  .00002907  00000+0  12876-3 0  9993
2 55326  40.4958 229.9751 0003406 185.2736 174.8038 15.23110272190963
HAWK-6A                 
1 55327U 23011D   26188.57549785  .00002892  00000+0  12816-3 0  9995
2 55327  40.4968 231.6017 0002947 183.6819 176.3969 15.23111426190965
HAWK-7A                 
1 56191U 23054P   26188.74609285  .00003717  00000+0  14051-3 0  9993
2 56191  97.2674  75.5606 0002261   5.1743 354.9520 15.27580157180164
